{
  "type": "FeatureCollection",
  "features": [
    {
      "type": "Feature",
      "properties": {
        "norad_id": 66610,
        "name": "STARLINK-35680",
        "group": "last-30-days",
        "lat": 10.170132915632704,
        "lon": 151.55219360738445,
        "alt_km": 442.33262218932396,
        "timestamp": "2025-12-21T16:47:53.448087+00:00",
        "meta_object_name": "STARLINK-35680",
        "meta_object_id": "2025-270Y",
        "meta_epoch": "2025-12-21T12:00:02.000160",
        "meta_mean_motion": 15.40708714,
        "meta_eccentricity": 0.0002047,
        "meta_inclination": 42.9995,
        "meta_ra_of_asc_node": 141.605,
        "meta_arg_of_pericenter": 284.71,
        "meta_mean_anomaly": 60.278,
        "meta_ephemeris_type": 0,
        "meta_classification_type": "U",
        "meta_norad_cat_id": 66610,
        "meta_element_set_no": 999,
        "meta_rev_at_epoch": 591,
        "meta_bstar": 0.00029285,
        "meta_mean_motion_dot": 0.00011952,
        "meta_mean_motion_ddot": 0,
        "tle_line1": "1 66610U 25270Y   25355.50002315  .00011952  00000+0  29285-3 0  9997",
        "tle_line2": "2 66610  42.9995 141.6050 0002047 284.7100  60.2780 15.40708714  5916"
      },
      "geometry": {
        "type": "Point",
        "coordinates": [
          151.55219360738445,
          10.170132915632704
        ]
      }
    },
    {
      "type": "Feature",
      "properties": {
        "norad_id": 66611,
        "name": "STARLINK-35583",
        "group": "last-30-days",
        "lat": 25.98776687413174,
        "lon": 171.93496498975506,
        "alt_km": 440.3348565563947,
        "timestamp": "2025-12-21T16:47:53.448098+00:00",
        "meta_object_name": "STARLINK-35583",
        "meta_object_id": "2025-270Z",
        "meta_epoch": "2025-12-21T12:00:02.000160",
        "meta_mean_motion": 15.4069104,
        "meta_eccentricity": 0.0001536,
        "meta_inclination": 42.9994,
        "meta_ra_of_asc_node": 141.5449,
        "meta_arg_of_pericenter": 286.2206,
        "meta_mean_anomaly": 83.7545,
        "meta_ephemeris_type": 0,
        "meta_classification_type": "U",
        "meta_norad_cat_id": 66611,
        "meta_element_set_no": 999,
        "meta_rev_at_epoch": 591,
        "meta_bstar": 0.00028722,
        "meta_mean_motion_dot": 0.00011709,
        "meta_mean_motion_ddot": 0,
        "tle_line1": "1 66611U 25270Z   25355.50002315  .00011709  00000+0  28722-3 0  9993",
        "tle_line2": "2 66611  42.9994 141.5449 0001536 286.2206  83.7545 15.40691040  5915"
      },
      "geometry": {
        "type": "Point",
        "coordinates": [
          171.93496498975506,
          25.98776687413174
        ]
      }
    },
    {
      "type": "Feature",
      "properties": {
        "norad_id": 66612,
        "name": "STARLINK-36039",
        "group": "last-30-days",
        "lat": 18.90043724167827,
        "lon": -60.566981183219475,
        "alt_km": 440.4912104388968,
        "timestamp": "2025-12-21T16:47:53.448108+00:00",
        "meta_object_name": "STARLINK-36039",
        "meta_object_id": "2025-270AA",
        "meta_epoch": "2025-12-20T10:34:58.712448",
        "meta_mean_motion": 15.40726185,
        "meta_eccentricity": 0.00016577,
        "meta_inclination": 43.0005,
        "meta_ra_of_asc_node": 148.2468,
        "meta_arg_of_pericenter": 221.4551,
        "meta_mean_anomaly": 138.618,
        "meta_ephemeris_type": 0,
        "meta_classification_type": "U",
        "meta_norad_cat_id": 66612,
        "meta_element_set_no": 999,
        "meta_rev_at_epoch": 553,
        "meta_bstar": 0.00084609538,
        "meta_mean_motion_dot": 0.00035234,
        "meta_mean_motion_ddot": 0,
        "tle_line1": "1 66612U 25270AA  25354.44095732  .00035234  00000+0  84610-3 0  9998",
        "tle_line2": "2 66612  43.0005 148.2468 0001657 221.4551 138.6180 15.40726185  5536"
      },
      "geometry": {
        "type": "Point",
        "coordinates": [
          -60.566981183219475,
          18.90043724167827
        ]
      }
    },
    {
      "type": "Feature",
      "properties": {
        "norad_id": 66613,
        "name": "STARLINK-36037",
        "group": "last-30-days",
        "lat": 2.5634748111052708,
        "lon": -41.821420969548,
        "alt_km": 442.89965229871905,
        "timestamp": "2025-12-21T16:47:53.448118+00:00",
        "meta_object_name": "STARLINK-36037",
        "meta_object_id": "2025-270AB",
        "meta_epoch": "2025-12-21T11:22:10.566624",
        "meta_mean_motion": 15.40728039,
        "meta_eccentricity": 0.0001294,
        "meta_inclination": 42.9987,
        "meta_ra_of_asc_node": 142.2364,
        "meta_arg_of_pericenter": 234.5292,
        "meta_mean_anomaly": 125.5444,
        "meta_ephemeris_type": 0,
        "meta_classification_type": "U",
        "meta_norad_cat_id": 66613,
        "meta_element_set_no": 999,
        "meta_rev_at_epoch": 569,
        "meta_bstar": 0.00091489,
        "meta_mean_motion_dot": 0.0003814,
        "meta_mean_motion_ddot": 0,
        "tle_line1": "1 66613U 25270AB  25355.47373341  .00038140  00000+0  91489-3 0  9999",
        "tle_line2": "2 66613  42.9987 142.2364 0001294 234.5292 125.5444 15.40728039  5692"
      },
      "geometry": {
        "type": "Point",
        "coordinates": [
          -41.821420969548,
          2.5634748111052708
        ]
      }
    },
    {
      "type": "Feature",
      "properties": {
        "norad_id": 66614,
        "name": "STARLINK-36040",
        "group": "last-30-days",
        "lat": -40.39991226295272,
        "lon": 74.69539323293758,
        "alt_km": 445.88169199243384,
        "timestamp": "2025-12-21T16:47:53.448130+00:00",
        "meta_object_name": "STARLINK-36040",
        "meta_object_id": "2025-270AC",
        "meta_epoch": "2025-12-21T00:00:02.000160",
        "meta_mean_motion": 15.40692599,
        "meta_eccentricity": 0.00019973,
        "meta_inclination": 43,
        "meta_ra_of_asc_node": 144.6954,
        "meta_arg_of_pericenter": 275.5423,
        "meta_mean_anomaly": 85.8984,
        "meta_ephemeris_type": 0,
        "meta_classification_type": "U",
        "meta_norad_cat_id": 66614,
        "meta_element_set_no": 999,
        "meta_rev_at_epoch": 557,
        "meta_bstar": 0.00059715396,
        "meta_mean_motion_dot": 0.00024716,
        "meta_mean_motion_ddot": 0,
        "tle_line1": "1 66614U 25270AC  25355.00002315  .00024716  00000+0  59715-3 0  9999",
        "tle_line2": "2 66614  43.0000 144.6954 0001997 275.5423  85.8984 15.40692599  5578"
      },
      "geometry": {
        "type": "Point",
        "coordinates": [
          74.69539323293758,
          -40.39991226295272
        ]
      }
    },
    {
      "type": "Feature",
      "properties": {
        "norad_id": 66615,
        "name": "STARLINK-35988",
        "group": "last-30-days",
        "lat": -22.134049350639927,
        "lon": -13.277322082117362,
        "alt_km": 445.48549904137326,
        "timestamp": "2025-12-21T16:47:53.448140+00:00",
        "meta_object_name": "STARLINK-35988",
        "meta_object_id": "2025-270AD",
        "meta_epoch": "2025-12-21T11:12:29.897280",
        "meta_mean_motion": 15.40725289,
        "meta_eccentricity": 0.0001088,
        "meta_inclination": 42.9984,
        "meta_ra_of_asc_node": 142.1832,
        "meta_arg_of_pericenter": 251.7254,
        "meta_mean_anomaly": 108.3484,
        "meta_ephemeris_type": 0,
        "meta_classification_type": "U",
        "meta_norad_cat_id": 66615,
        "meta_element_set_no": 999,
        "meta_rev_at_epoch": 553,
        "meta_bstar": 0.00079898,
        "meta_mean_motion_dot": 0.00033245,
        "meta_mean_motion_ddot": 0,
        "tle_line1": "1 66615U 25270AD  25355.46701270  .00033245  00000+0  79898-3 0  9997",
        "tle_line2": "2 66615  42.9984 142.1832 0001088 251.7254 108.3484 15.40725289  5530"
      },
      "geometry": {
        "type": "Point",
        "coordinates": [
          -13.277322082117362,
          -22.134049350639927
        ]
      }
    },
    {
      "type": "Feature",
      "properties": {
        "norad_id": 66616,
        "name": "STARLINK-35391",
        "group": "last-30-days",
        "lat": -29.963409230582428,
        "lon": 102.38437676689112,
        "alt_km": 446.1475564025586,
        "timestamp": "2025-12-21T16:47:53.448150+00:00",
        "meta_object_name": "STARLINK-35391",
        "meta_object_id": "2025-270AE",
        "meta_epoch": "2025-12-21T12:00:02.000160",
        "meta_mean_motion": 15.40685399,
        "meta_eccentricity": 0.0001299,
        "meta_inclination": 43,
        "meta_ra_of_asc_node": 141.7548,
        "meta_arg_of_pericenter": 266.4255,
        "meta_mean_anomaly": 16.4556,
        "meta_ephemeris_type": 0,
        "meta_classification_type": "U",
        "meta_norad_cat_id": 66616,
        "meta_element_set_no": 999,
        "meta_rev_at_epoch": 591,
        "meta_bstar": 0.00040108,
        "meta_mean_motion_dot": 0.00016479,
        "meta_mean_motion_ddot": 0,
        "tle_line1": "1 66616U 25270AE  25355.50002315  .00016479  00000+0  40108-3 0  9999",
        "tle_line2": "2 66616  43.0000 141.7548 0001299 266.4255  16.4556 15.40685399  5917"
      },
      "geometry": {
        "type": "Point",
        "coordinates": [
          102.38437676689112,
          -29.963409230582428
        ]
      }
    }
  ]
}